O3B FM20                
1 44112U 19020A   26065.26833099 -.00000026  00000+0  00000+0 0  9990
2 44112   0.0518 359.6916 0002799 333.6749  26.6137  5.00115505126421
O3B FM19                
1 44113U 19020B   26065.89512278 -.00000026  00000+0  00000+0 0  9993
2 44113   0.0567 352.2118 0004312 343.7320  24.0309  5.00115814126324
O3B FM17                
1 44114U 19020C   26065.97517995 -.00000026  00000+0  00000+0 0  9994
2 44114   0.0391 340.4385 0002682   0.4016  19.1448  5.00115475126403
O3B FM18                
1 44115U 19020D   26062.52332968 -.00000028  00000+0  00000+0 0  9990
2 44115   0.0519   0.0145 0002751 341.7220  18.2467  5.00115242126362
SALSAT                  
1 46495U 20068K   26065.92289661  .00011302  00000+0  41467-3 0  9997
2 46495  97.8857  62.8923 0008446 308.5318  51.5163 15.28115498299739
O3B MPOWER F1           
1 54755U 22174A   26065.87317552 -.00000026  00000+0  00000+0 0  9996
2 54755   0.0639 350.7946 0005200  11.4672 130.7782  5.00103103 60241
O3B MPOWER F2           
1 54756U 22174B   26062.53384886 -.00000028  00000+0  00000+0 0  9993
2 54756   0.1272 326.2177 0046125  76.0907 318.0389  5.00690325 60150
O3B MPOWER F4           
1 56367U 23059A   26048.24074746 -.00000015  00000+0  00000+0 0  9995
2 56367   0.0593   7.9241 0006460 334.3658  17.6828  5.00119607 52601
